<?xml version="1.0" encoding="UTF-8"?>
<ndm xmlns:xsi="https://www.w3.org/2001/XMLSchema-instance" xsi:noNamespaceSchemaLocation="https://sanaregistry.org/r/ndmxml/ndmxml-1.0-master.xsd">
<omm id="CCSDS_OMM_VERS" version="2.0">
<header><CREATION_DATE/><ORIGINATOR/></header><body><segment><metadata><OBJECT_NAME>BSAT-4B</OBJECT_NAME><OBJECT_ID>2020-056A</OBJECT_ID><CENTER_NAME>EARTH</CENTER_NAME><REF_FRAME>TEME</REF_FRAME><TIME_SYSTEM>UTC</TIME_SYSTEM><MEAN_ELEMENT_THEORY>SGP4</MEAN_ELEMENT_THEORY></metadata><data><meanElements><EPOCH>2020-09-08T11:38:58.494336</EPOCH><MEAN_MOTION>1.00338020</MEAN_MOTION><ECCENTRICITY>.0004303</ECCENTRICITY><INCLINATION>0.0440</INCLINATION><RA_OF_ASC_NODE>306.1230</RA_OF_ASC_NODE><ARG_OF_PERICENTER>9.7562</ARG_OF_PERICENTER><MEAN_ANOMALY>312.2846</MEAN_ANOMALY></meanElements><tleParameters><EPHEMERIS_TYPE>0</EPHEMERIS_TYPE><CLASSIFICATION_TYPE>U</CLASSIFICATION_TYPE><NORAD_CAT_ID>46112</NORAD_CAT_ID><ELEMENT_SET_NO>999</ELEMENT_SET_NO><REV_AT_EPOCH>26</REV_AT_EPOCH><BSTAR>.00000E-0</BSTAR><MEAN_MOTION_DOT>-3.43E-6</MEAN_MOTION_DOT><MEAN_MOTION_DDOT>0</MEAN_MOTION_DDOT></tleParameters></data></segment></body></omm>
<omm id="CCSDS_OMM_VERS" version="2.0">
<header><CREATION_DATE/><ORIGINATOR/></header><body><segment><metadata><OBJECT_NAME>MEV-2</OBJECT_NAME><OBJECT_ID>2020-056B</OBJECT_ID><CENTER_NAME>EARTH</CENTER_NAME><REF_FRAME>TEME</REF_FRAME><TIME_SYSTEM>UTC</TIME_SYSTEM><MEAN_ELEMENT_THEORY>SGP4</MEAN_ELEMENT_THEORY></metadata><data><meanElements><EPOCH>2020-09-06T01:03:33.024672</EPOCH><MEAN_MOTION>1.89665302</MEAN_MOTION><ECCENTRICITY>.5679467</ECCENTRICITY><INCLINATION>3.6163</INCLINATION><RA_OF_ASC_NODE>121.2949</RA_OF_ASC_NODE><ARG_OF_PERICENTER>184.8189</ARG_OF_PERICENTER><MEAN_ANOMALY>113.1302</MEAN_ANOMALY></meanElements><tleParameters><EPHEMERIS_TYPE>0</EPHEMERIS_TYPE><CLASSIFICATION_TYPE>U</CLASSIFICATION_TYPE><NORAD_CAT_ID>46113</NORAD_CAT_ID><ELEMENT_SET_NO>999</ELEMENT_SET_NO><REV_AT_EPOCH>42</REV_AT_EPOCH><BSTAR>.00000E+0</BSTAR><MEAN_MOTION_DOT>-8.5E-7</MEAN_MOTION_DOT><MEAN_MOTION_DDOT>0</MEAN_MOTION_DDOT></tleParameters></data></segment></body></omm>
<omm id="CCSDS_OMM_VERS" version="2.0">
<header><CREATION_DATE/><ORIGINATOR/></header><body><segment><metadata><OBJECT_NAME>GALAXY 30</OBJECT_NAME><OBJECT_ID>2020-056C</OBJECT_ID><CENTER_NAME>EARTH</CENTER_NAME><REF_FRAME>TEME</REF_FRAME><TIME_SYSTEM>UTC</TIME_SYSTEM><MEAN_ELEMENT_THEORY>SGP4</MEAN_ELEMENT_THEORY></metadata><data><meanElements><EPOCH>2020-09-08T21:53:22.852320</EPOCH><MEAN_MOTION>1.00273007</MEAN_MOTION><ECCENTRICITY>.0000519</ECCENTRICITY><INCLINATION>0.0164</INCLINATION><RA_OF_ASC_NODE>355.8060</RA_OF_ASC_NODE><ARG_OF_PERICENTER>224.9778</ARG_OF_PERICENTER><MEAN_ANOMALY>180.5231</MEAN_ANOMALY></meanElements><tleParameters><EPHEMERIS_TYPE>0</EPHEMERIS_TYPE><CLASSIFICATION_TYPE>U</CLASSIFICATION_TYPE><NORAD_CAT_ID>46114</NORAD_CAT_ID><ELEMENT_SET_NO>999</ELEMENT_SET_NO><REV_AT_EPOCH>29</REV_AT_EPOCH><BSTAR>.00000E-0</BSTAR><MEAN_MOTION_DOT>-1.82E-6</MEAN_MOTION_DOT><MEAN_MOTION_DDOT>0</MEAN_MOTION_DDOT></tleParameters></data></segment></body></omm>
<omm id="CCSDS_OMM_VERS" version="2.0">
<header><CREATION_DATE/><ORIGINATOR/></header><body><segment><metadata><OBJECT_NAME>ARIANE 5 DEB [SYLDA]</OBJECT_NAME><OBJECT_ID>2020-056D</OBJECT_ID><CENTER_NAME>EARTH</CENTER_NAME><REF_FRAME>TEME</REF_FRAME><TIME_SYSTEM>UTC</TIME_SYSTEM><MEAN_ELEMENT_THEORY>SGP4</MEAN_ELEMENT_THEORY></metadata><data><meanElements><EPOCH>2020-09-08T07:03:18.600192</EPOCH><MEAN_MOTION>2.28324408</MEAN_MOTION><ECCENTRICITY>.7268183</ECCENTRICITY><INCLINATION>6.0448</INCLINATION><RA_OF_ASC_NODE>115.1203</RA_OF_ASC_NODE><ARG_OF_PERICENTER>197.0593</ARG_OF_PERICENTER><MEAN_ANOMALY>111.6007</MEAN_ANOMALY></meanElements><tleParameters><EPHEMERIS_TYPE>0</EPHEMERIS_TYPE><CLASSIFICATION_TYPE>U</CLASSIFICATION_TYPE><NORAD_CAT_ID>46115</NORAD_CAT_ID><ELEMENT_SET_NO>999</ELEMENT_SET_NO><REV_AT_EPOCH>53</REV_AT_EPOCH><BSTAR>.20023E-2</BSTAR><MEAN_MOTION_DOT>3.983E-5</MEAN_MOTION_DOT><MEAN_MOTION_DDOT>0</MEAN_MOTION_DDOT></tleParameters></data></segment></body></omm>
<omm id="CCSDS_OMM_VERS" version="2.0">
<header><CREATION_DATE/><ORIGINATOR/></header><body><segment><metadata><OBJECT_NAME>ARIANE 5 R/B</OBJECT_NAME><OBJECT_ID>2020-056E</OBJECT_ID><CENTER_NAME>EARTH</CENTER_NAME><REF_FRAME>TEME</REF_FRAME><TIME_SYSTEM>UTC</TIME_SYSTEM><MEAN_ELEMENT_THEORY>SGP4</MEAN_ELEMENT_THEORY></metadata><data><meanElements><EPOCH>2020-09-08T16:39:29.269728</EPOCH><MEAN_MOTION>2.28681443</MEAN_MOTION><ECCENTRICITY>.7268417</ECCENTRICITY><INCLINATION>5.8145</INCLINATION><RA_OF_ASC_NODE>117.4740</RA_OF_ASC_NODE><ARG_OF_PERICENTER>194.8132</ARG_OF_PERICENTER><MEAN_ANOMALY>119.6073</MEAN_ANOMALY></meanElements><tleParameters><EPHEMERIS_TYPE>0</EPHEMERIS_TYPE><CLASSIFICATION_TYPE>U</CLASSIFICATION_TYPE><NORAD_CAT_ID>46116</NORAD_CAT_ID><ELEMENT_SET_NO>999</ELEMENT_SET_NO><REV_AT_EPOCH>55</REV_AT_EPOCH><BSTAR>.18735E-3</BSTAR><MEAN_MOTION_DOT>1.62E-6</MEAN_MOTION_DOT><MEAN_MOTION_DDOT>0</MEAN_MOTION_DDOT></tleParameters></data></segment></body></omm>
<omm id="CCSDS_OMM_VERS" version="2.0">
<header><CREATION_DATE/><ORIGINATOR/></header><body><segment><metadata><OBJECT_NAME>STARLINK-1585</OBJECT_NAME><OBJECT_ID>2020-057A</OBJECT_ID><CENTER_NAME>EARTH</CENTER_NAME><REF_FRAME>TEME</REF_FRAME><TIME_SYSTEM>UTC</TIME_SYSTEM><MEAN_ELEMENT_THEORY>SGP4</MEAN_ELEMENT_THEORY></metadata><data><meanElements><EPOCH>2020-09-08T22:00:00.999936</EPOCH><MEAN_MOTION>15.66240683</MEAN_MOTION><ECCENTRICITY>.0008248</ECCENTRICITY><INCLINATION>52.9979</INCLINATION><RA_OF_ASC_NODE>335.2730</RA_OF_ASC_NODE><ARG_OF_PERICENTER>284.7461</ARG_OF_PERICENTER><MEAN_ANOMALY>296.1921</MEAN_ANOMALY></meanElements><tleParameters><EPHEMERIS_TYPE>0</EPHEMERIS_TYPE><CLASSIFICATION_TYPE>U</CLASSIFICATION_TYPE><NORAD_CAT_ID>46117</NORAD_CAT_ID><ELEMENT_SET_NO>999</ELEMENT_SET_NO><REV_AT_EPOCH>177</REV_AT_EPOCH><BSTAR>-.22764E-3</BSTAR><MEAN_MOTION_DOT>-2.4481E-4</MEAN_MOTION_DOT><MEAN_MOTION_DDOT>0</MEAN_MOTION_DDOT></tleParameters></data></segment></body></omm>
<omm id="CCSDS_OMM_VERS" version="2.0">
<header><CREATION_DATE/><ORIGINATOR/></header><body><segment><metadata><OBJECT_NAME>STARLINK-1588</OBJECT_NAME><OBJECT_ID>2020-057B</OBJECT_ID><CENTER_NAME>EARTH</CENTER_NAME><REF_FRAME>TEME</REF_FRAME><TIME_SYSTEM>UTC</TIME_SYSTEM><MEAN_ELEMENT_THEORY>SGP4</MEAN_ELEMENT_THEORY></metadata><data><meanElements><EPOCH>2020-09-08T22:00:00.999936</EPOCH><MEAN_MOTION>15.62778613</MEAN_MOTION><ECCENTRICITY>.0001112</ECCENTRICITY><INCLINATION>52.9999</INCLINATION><RA_OF_ASC_NODE>335.6233</RA_OF_ASC_NODE><ARG_OF_PERICENTER>46.8343</ARG_OF_PERICENTER><MEAN_ANOMALY>9.5493</MEAN_ANOMALY></meanElements><tleParameters><EPHEMERIS_TYPE>0</EPHEMERIS_TYPE><CLASSIFICATION_TYPE>U</CLASSIFICATION_TYPE><NORAD_CAT_ID>46118</NORAD_CAT_ID><ELEMENT_SET_NO>999</ELEMENT_SET_NO><REV_AT_EPOCH>403</REV_AT_EPOCH><BSTAR>-.12120E-3</BSTAR><MEAN_MOTION_DOT>-1.1627E-4</MEAN_MOTION_DOT><MEAN_MOTION_DDOT>0</MEAN_MOTION_DDOT></tleParameters></data></segment></body></omm>

</ndm>
